QIANFAN-25              
1 61558U 24185G   25204.58092661  .00000324  00000+0  18982-3 0  9994
2 61558  88.9800  94.2977 0009173  44.6914 315.5006 14.05746851 49538
QIANFAN-26              
1 61559U 24185H   25204.61940878  .00000192  00000+0  17897-3 0  9998
2 61559  88.9812  95.1058 0007983  80.5110 279.6959 13.77716973 49106
QIANFAN-27              
1 61560U 24185J   25204.63190735  .00000448  00000+0  17786-3 0  9992
2 61560  88.9801  93.6221 0010151  46.2081 313.9950 14.27115457 49893
QIANFAN-28              
1 61561U 24185K   25204.60544810  .00000687  00000+0  27275-3 0  9996
2 61561  88.9819  93.6176 0009180  48.0923 312.1053 14.27668943 49895
QIANFAN-29              
1 61562U 24185L   25204.60926122  .00000122  00000+0  17072-3 0  9995
2 61562  88.9808  96.0087 0012057  98.1465 262.1054 13.50952265 48607
QIANFAN-30              
1 61563U 24185M   25204.62465576  .00000123  00000+0  17485-3 0  9998
2 61563  88.9813  95.4817 0009721  85.2916 274.9344 13.49924529 48894
QIANFAN-31              
1 61564U 24185N   25204.61647206  .00000153  00000+0  19554-3 0  9992
2 61564  88.9794  95.5099 0009389  83.5762 276.6462 13.57902269 48870
QIANFAN-32              
1 61565U 24185P   25204.59798379  .00000155  00000+0  22192-3 0  9992
2 61565  88.9856  95.5755 0011226 106.6704 253.5680 13.50680728 48855
